[{"OBJECT_NAME":"ONEWEB-0411","OBJECT_ID":"2022-012B","EPOCH":"2025-10-01T05:41:55.426848","MEAN_MOTION":13.10374583,"ECCENTRICITY":0.00019314,"INCLINATION":87.874,"RA_OF_ASC_NODE":87.8991,"ARG_OF_PERICENTER":106.4486,"MEAN_ANOMALY":253.6854,"EPHEMERIS_TYPE":0,"CLASSIFICATION_TYPE":"U","NORAD_CAT_ID":51623,"ELEMENT_SET_NO":999,"REV_AT_EPOCH":17537,"BSTAR":0.0014226426,"MEAN_MOTION_DOT":5.09e-6,"MEAN_MOTION_DDOT":0},{"OBJECT_NAME":"ONEWEB-0415","OBJECT_ID":"2022-012C","EPOCH":"2025-10-01T05:37:08.260896","MEAN_MOTION":13.10375358,"ECCENTRICITY":0.00018194,"INCLINATION":87.8738,"RA_OF_ASC_NODE":87.9017,"ARG_OF_PERICENTER":98.7093,"MEAN_ANOMALY":261.424,"EPHEMERIS_TYPE":0,"CLASSIFICATION_TYPE":"U","NORAD_CAT_ID":51624,"ELEMENT_SET_NO":999,"REV_AT_EPOCH":17537,"BSTAR":0.0012403708,"MEAN_MOTION_DOT":4.46e-6,"MEAN_MOTION_DDOT":0},{"OBJECT_NAME":"ONEWEB-0416","OBJECT_ID":"2022-012D","EPOCH":"2025-10-01T05:53:52.397376","MEAN_MOTION":13.10373231,"ECCENTRICITY":0.0001758,"INCLINATION":87.8739,"RA_OF_ASC_NODE":87.9198,"ARG_OF_PERICENTER":90.2708,"MEAN_ANOMALY":269.8621,"EPHEMERIS_TYPE":0,"CLASSIFICATION_TYPE":"U","NORAD_CAT_ID":51625,"ELEMENT_SET_NO":999,"REV_AT_EPOCH":17541,"BSTAR":0.0017781639,"MEAN_MOTION_DOT":6.33e-6,"MEAN_MOTION_DDOT":0},{"OBJECT_NAME":"ONEWEB-0422","OBJECT_ID":"2022-012E","EPOCH":"2025-09-30T19:54:24.772896","MEAN_MOTION":13.17649288,"ECCENTRICITY":0.00010328,"INCLINATION":87.9078,"RA_OF_ASC_NODE":57.4252,"ARG_OF_PERICENTER":111.206,"MEAN_ANOMALY":248.9182,"EPHEMERIS_TYPE":0,"CLASSIFICATION_TYPE":"U","NORAD_CAT_ID":51626,"ELEMENT_SET_NO":999,"REV_AT_EPOCH":17965,"BSTAR":0.00017374334,"MEAN_MOTION_DOT":8.0e-7,"MEAN_MOTION_DDOT":0},{"OBJECT_NAME":"ONEWEB-0423","OBJECT_ID":"2022-012F","EPOCH":"2025-09-30T10:37:57.326304","MEAN_MOTION":13.17647983,"ECCENTRICITY":0.00015711,"INCLINATION":87.9078,"RA_OF_ASC_NODE":57.5118,"ARG_OF_PERICENTER":93.5482,"MEAN_ANOMALY":266.5829,"EPHEMERIS_TYPE":0,"CLASSIFICATION_TYPE":"U","NORAD_CAT_ID":51627,"ELEMENT_SET_NO":999,"REV_AT_EPOCH":17949,"BSTAR":-6.674838e-5,"MEAN_MOTION_DOT":-1.3e-7,"MEAN_MOTION_DDOT":0},{"OBJECT_NAME":"ONEWEB-0425","OBJECT_ID":"2022-012G","EPOCH":"2025-10-01T00:38:20.755968","MEAN_MOTION":13.10371281,"ECCENTRICITY":0.00017758,"INCLINATION":87.8735,"RA_OF_ASC_NODE":87.9328,"ARG_OF_PERICENTER":79.0865,"MEAN_ANOMALY":281.0462,"EPHEMERIS_TYPE":0,"CLASSIFICATION_TYPE":"U","NORAD_CAT_ID":51628,"ELEMENT_SET_NO":999,"REV_AT_EPOCH":17538,"BSTAR":0.0012102929,"MEAN_MOTION_DOT":4.35e-6,"MEAN_MOTION_DDOT":0},{"OBJECT_NAME":"ONEWEB-0428","OBJECT_ID":"2022-012H","EPOCH":"2025-10-01T05:39:31.797216","MEAN_MOTION":13.10374908,"ECCENTRICITY":0.00015245,"INCLINATION":87.8741,"RA_OF_ASC_NODE":87.9124,"ARG_OF_PERICENTER":94.0673,"MEAN_ANOMALY":266.0629,"EPHEMERIS_TYPE":0,"CLASSIFICATION_TYPE":"U","NORAD_CAT_ID":51629,"ELEMENT_SET_NO":999,"REV_AT_EPOCH":17537,"BSTAR":0.0013782914,"MEAN_MOTION_DOT":4.94e-6,"MEAN_MOTION_DDOT":0},{"OBJECT_NAME":"ONEWEB-0431","OBJECT_ID":"2022-012J","EPOCH":"2025-10-01T04:56:16.603008","MEAN_MOTION":13.10371482,"ECCENTRICITY":0.00018025,"INCLINATION":87.8746,"RA_OF_ASC_NODE":87.8918,"ARG_OF_PERICENTER":112.2905,"MEAN_ANOMALY":247.8414,"EPHEMERIS_TYPE":0,"CLASSIFICATION_TYPE":"U","NORAD_CAT_ID":51630,"ELEMENT_SET_NO":999,"REV_AT_EPOCH":17542,"BSTAR":-0.0019996468,"MEAN_MOTION_DOT":-6.85e-6,"MEAN_MOTION_DDOT":0},{"OBJECT_NAME":"ONEWEB-0434","OBJECT_ID":"2022-012K","EPOCH":"2025-10-01T00:43:07.489056","MEAN_MOTION":13.10370578,"ECCENTRICITY":0.00019072,"INCLINATION":87.8736,"RA_OF_ASC_NODE":87.968,"ARG_OF_PERICENTER":71.4001,"MEAN_ANOMALY":288.7334,"EPHEMERIS_TYPE":0,"CLASSIFICATION_TYPE":"U","NORAD_CAT_ID":51631,"ELEMENT_SET_NO":999,"REV_AT_EPOCH":17538,"BSTAR":0.00041079846,"MEAN_MOTION_DOT":1.56e-6,"MEAN_MOTION_DDOT":0},{"OBJECT_NAME":"ONEWEB-0435","OBJECT_ID":"2022-012L","EPOCH":"2025-09-30T23:05:06.579744","MEAN_MOTION":13.10370163,"ECCENTRICITY":0.00012695,"INCLINATION":87.8733,"RA_OF_ASC_NODE":87.9726,"ARG_OF_PERICENTER":94.7295,"MEAN_ANOMALY":265.3977,"EPHEMERIS_TYPE":0,"CLASSIFICATION_TYPE":"U","NORAD_CAT_ID":51632,"ELEMENT_SET_NO":999,"REV_AT_EPOCH":17536,"BSTAR":-0.00058268707,"MEAN_MOTION_DOT":-1.91e-6,"MEAN_MOTION_DDOT":0},{"OBJECT_NAME":"ONEWEB-0436","OBJECT_ID":"2022-012M","EPOCH":"2025-10-01T02:49:56.547840","MEAN_MOTION":13.17647771,"ECCENTRICITY":0.00016025,"INCLINATION":87.9081,"RA_OF_ASC_NODE":57.3563,"ARG_OF_PERICENTER":102.5065,"MEAN_ANOMALY":257.6246,"EPHEMERIS_TYPE":0,"CLASSIFICATION_TYPE":"U","NORAD_CAT_ID":51633,"ELEMENT_SET_NO":999,"REV_AT_EPOCH":17956,"BSTAR":-0.00021193517,"MEAN_MOTION_DOT":-6.9e-7,"MEAN_MOTION_DDOT":0},{"OBJECT_NAME":"ONEWEB-0438","OBJECT_ID":"2022-012N","EPOCH":"2025-10-01T06:01:02.718624","MEAN_MOTION":13.10371267,"ECCENTRICITY":0.00017532,"INCLINATION":87.8735,"RA_OF_ASC_NODE":87.9158,"ARG_OF_PERICENTER":84.3027,"MEAN_ANOMALY":275.83,"EPHEMERIS_TYPE":0,"CLASSIFICATION_TYPE":"U","NORAD_CAT_ID":51634,"ELEMENT_SET_NO":999,"REV_AT_EPOCH":17543,"BSTAR":0.0013456411,"MEAN_MOTION_DOT":4.82e-6,"MEAN_MOTION_DDOT":0},{"OBJECT_NAME":"ONEWEB-0439","OBJECT_ID":"2022-012P","EPOCH":"2025-09-30T22:46:00.115680","MEAN_MOTION":13.10370588,"ECCENTRICITY":0.00015872,"INCLINATION":87.8734,"RA_OF_ASC_NODE":87.9648,"ARG_OF_PERICENTER":88.6035,"MEAN_ANOMALY":271.5274,"EPHEMERIS_TYPE":0,"CLASSIFICATION_TYPE":"U","NORAD_CAT_ID":51635,"ELEMENT_SET_NO":999,"REV_AT_EPOCH":17537,"BSTAR":0.0014241314,"MEAN_MOTION_DOT":5.1e-6,"MEAN_MOTION_DDOT":0},{"OBJECT_NAME":"ONEWEB-0442","OBJECT_ID":"2022-012Q","EPOCH":"2025-10-01T08:07:02.533728","MEAN_MOTION":13.1765037,"ECCENTRICITY":0.00021943,"INCLINATION":87.9072,"RA_OF_ASC_NODE":57.3657,"ARG_OF_PERICENTER":83.8664,"MEAN_ANOMALY":276.2717,"EPHEMERIS_TYPE":0,"CLASSIFICATION_TYPE":"U","NORAD_CAT_ID":51636,"ELEMENT_SET_NO":999,"REV_AT_EPOCH":17958,"BSTAR":-9.456443e-6,"MEAN_MOTION_DOT":9.0e-8,"MEAN_MOTION_DDOT":0},{"OBJECT_NAME":"ONEWEB-0443","OBJECT_ID":"2022-012R","EPOCH":"2025-09-30T19:49:32.607840","MEAN_MOTION":13.17652461,"ECCENTRICITY":0.0001562,"INCLINATION":87.9066,"RA_OF_ASC_NODE":57.4749,"ARG_OF_PERICENTER":83.793,"MEAN_ANOMALY":276.338,"EPHEMERIS_TYPE":0,"CLASSIFICATION_TYPE":"U","NORAD_CAT_ID":51637,"ELEMENT_SET_NO":999,"REV_AT_EPOCH":17956,"BSTAR":-6.5997936e-5,"MEAN_MOTION_DOT":-1.3e-7,"MEAN_MOTION_DDOT":0},{"OBJECT_NAME":"ONEWEB-0444","OBJECT_ID":"2022-012S","EPOCH":"2025-10-01T05:51:28.961280","MEAN_MOTION":13.10373607,"ECCENTRICITY":0.00015203,"INCLINATION":87.8736,"RA_OF_ASC_NODE":87.9055,"ARG_OF_PERICENTER":89.0414,"MEAN_ANOMALY":271.0887,"EPHEMERIS_TYPE":0,"CLASSIFICATION_TYPE":"U","NORAD_CAT_ID":51638,"ELEMENT_SET_NO":999,"REV_AT_EPOCH":17542,"BSTAR":0.0017008001,"MEAN_MOTION_DOT":6.06e-6,"MEAN_MOTION_DDOT":0},{"OBJECT_NAME":"ONEWEB-0445","OBJECT_ID":"2022-012T","EPOCH":"2025-10-01T04:32:34.462464","MEAN_MOTION":13.10371691,"ECCENTRICITY":0.0001851,"INCLINATION":87.8748,"RA_OF_ASC_NODE":87.8723,"ARG_OF_PERICENTER":91.6841,"MEAN_ANOMALY":268.4498,"EPHEMERIS_TYPE":0,"CLASSIFICATION_TYPE":"U","NORAD_CAT_ID":51639,"ELEMENT_SET_NO":999,"REV_AT_EPOCH":17542,"BSTAR":-0.00044061422,"MEAN_MOTION_DOT":-1.41e-6,"MEAN_MOTION_DDOT":0}]
