ONEWEB-0411             
1 51623U 22012B   25274.23744707  .00000509  00000+0  14226-2 0  9998
2 51623  87.8740  87.8991 0001931 106.4486 253.6854 13.10374583175379
ONEWEB-0415             
1 51624U 22012C   25274.23412339  .00000446  00000+0  12404-2 0  9998
2 51624  87.8738  87.9017 0001819  98.7093 261.4240 13.10375358175376
ONEWEB-0416             
1 51625U 22012D   25274.24574534  .00000633  00000+0  17782-2 0  9998
2 51625  87.8739  87.9198 0001758  90.2708 269.8621 13.10373231175418
ONEWEB-0422             
1 51626U 22012E   25273.82945339  .00000080  00000+0  17374-3 0  9991
2 51626  87.9078  57.4252 0001032 111.2060 248.9182 13.17649288179654
ONEWEB-0423             
1 51627U 22012F   25273.44302461 -.00000013  00000+0 -66748-4 0  9991
2 51627  87.9078  57.5118 0001571  93.5482 266.5829 13.17647983179491
ONEWEB-0425             
1 51628U 22012G   25274.02662912  .00000435  00000+0  12103-2 0  9997
2 51628  87.8735  87.9328 0001775  79.0865 281.0462 13.10371281175388
ONEWEB-0428             
1 51629U 22012H   25274.23578469  .00000494  00000+0  13783-2 0  9994
2 51629  87.8741  87.9124 0001524  94.0673 266.0629 13.10374908175372
ONEWEB-0431             
1 51630U 22012J   25274.20574772 -.00000685  00000+0 -19996-2 0  9992
2 51630  87.8746  87.8918 0001802 112.2905 247.8414 13.10371482175428
ONEWEB-0434             
1 51631U 22012K   25274.02994779  .00000156  00000+0  41080-3 0  9997
2 51631  87.8736  87.9680 0001907  71.4001 288.7334 13.10370578175389
ONEWEB-0435             
1 51632U 22012L   25273.96188171 -.00000191  00000+0 -58269-3 0  9999
2 51632  87.8733  87.9726 0001269  94.7295 265.3977 13.10370163175364
ONEWEB-0436             
1 51633U 22012M   25274.11801560 -.00000069  00000+0 -21194-3 0  9993
2 51633  87.9081  57.3563 0001602 102.5065 257.6246 13.17647771179564
ONEWEB-0438             
1 51634U 22012N   25274.25072591  .00000482  00000+0  13456-2 0  9991
2 51634  87.8735  87.9158 0001753  84.3027 275.8300 13.10371267175433
ONEWEB-0439             
1 51635U 22012P   25273.94861245  .00000510  00000+0  14241-2 0  9994
2 51635  87.8734  87.9648 0001587  88.6035 271.5274 13.10370588175379
ONEWEB-0442             
1 51636U 22012Q   25274.33822377  .00000009  00000+0 -94564-5 0  9995
2 51636  87.9072  57.3657 0002194  83.8664 276.2717 13.17650370179585
ONEWEB-0443             
1 51637U 22012R   25273.82607185 -.00000013  00000+0 -65998-4 0  9991
2 51637  87.9066  57.4749 0001562  83.7930 276.3380 13.17652461179563
ONEWEB-0444             
1 51638U 22012S   25274.24408520  .00000606  00000+0  17008-2 0  9994
2 51638  87.8736  87.9055 0001520  89.0414 271.0887 13.10373607175425
ONEWEB-0445             
1 51639U 22012T   25274.18928776 -.00000141  00000+0 -44061-3 0  9994
2 51639  87.8748  87.8723 0001851  91.6841 268.4498 13.10371691175429
